[{"OBJECT_NAME":"STARLINK-30190","OBJECT_ID":"2023-107Q","EPOCH":"2025-10-20T08:00:03.000384","MEAN_MOTION":15.60115657,"ECCENTRICITY":0.00331061,"INCLINATION":42.9807,"RA_OF_ASC_NODE":332.5368,"ARG_OF_PERICENTER":66.3547,"MEAN_ANOMALY":304.1839,"EPHEMERIS_TYPE":0,"CLASSIFICATION_TYPE":"U","NORAD_CAT_ID":57471,"ELEMENT_SET_NO":999,"REV_AT_EPOCH":570,"BSTAR":0.0071018152,"MEAN_MOTION_DOT":0.00656741,"MEAN_MOTION_DDOT":0},{"OBJECT_NAME":"STARLINK-30204","OBJECT_ID":"2023-107R","EPOCH":"2025-10-19T16:08:07.117440","MEAN_MOTION":15.02542826,"ECCENTRICITY":0.00013242,"INCLINATION":43.004,"RA_OF_ASC_NODE":24.9594,"ARG_OF_PERICENTER":272.0703,"MEAN_ANOMALY":87.9988,"EPHEMERIS_TYPE":0,"CLASSIFICATION_TYPE":"U","NORAD_CAT_ID":57472,"ELEMENT_SET_NO":999,"REV_AT_EPOCH":12390,"BSTAR":4.0169992e-5,"MEAN_MOTION_DOT":3.39e-6,"MEAN_MOTION_DDOT":0},{"OBJECT_NAME":"STARLINK-30187","OBJECT_ID":"2023-107S","EPOCH":"2025-10-19T00:06:02.368512","MEAN_MOTION":15.02542755,"ECCENTRICITY":0.00011695,"INCLINATION":43.0037,"RA_OF_ASC_NODE":28.5396,"ARG_OF_PERICENTER":271.7101,"MEAN_ANOMALY":88.3607,"EPHEMERIS_TYPE":0,"CLASSIFICATION_TYPE":"U","NORAD_CAT_ID":57473,"ELEMENT_SET_NO":999,"REV_AT_EPOCH":12380,"BSTAR":0.00015803988,"MEAN_MOTION_DOT":1.932e-5,"MEAN_MOTION_DDOT":0},{"OBJECT_NAME":"STARLINK-30110","OBJECT_ID":"2023-107T","EPOCH":"2025-10-20T08:00:03.000384","MEAN_MOTION":15.37486297,"ECCENTRICITY":0.00277299,"INCLINATION":42.9968,"RA_OF_ASC_NODE":337.0632,"ARG_OF_PERICENTER":49.9465,"MEAN_ANOMALY":352.9166,"EPHEMERIS_TYPE":0,"CLASSIFICATION_TYPE":"U","NORAD_CAT_ID":57474,"ELEMENT_SET_NO":999,"REV_AT_EPOCH":588,"BSTAR":0.0046022939,"MEAN_MOTION_DOT":0.00178981,"MEAN_MOTION_DDOT":0},{"OBJECT_NAME":"STARLINK-30155","OBJECT_ID":"2023-107U","EPOCH":"2025-10-20T06:10:30.027072","MEAN_MOTION":15.02537892,"ECCENTRICITY":0.00017515,"INCLINATION":43.0056,"RA_OF_ASC_NODE":21.6112,"ARG_OF_PERICENTER":264.8606,"MEAN_ANOMALY":95.2037,"EPHEMERIS_TYPE":0,"CLASSIFICATION_TYPE":"U","NORAD_CAT_ID":57475,"ELEMENT_SET_NO":999,"REV_AT_EPOCH":12399,"BSTAR":1.7009154e-5,"MEAN_MOTION_DOT":2.6e-7,"MEAN_MOTION_DDOT":0},{"OBJECT_NAME":"STARLINK-30161","OBJECT_ID":"2023-107V","EPOCH":"2025-10-20T06:05:41.881344","MEAN_MOTION":15.02559955,"ECCENTRICITY":9.41e-5,"INCLINATION":42.9976,"RA_OF_ASC_NODE":21.5878,"ARG_OF_PERICENTER":96.6296,"MEAN_ANOMALY":263.4654,"EPHEMERIS_TYPE":0,"CLASSIFICATION_TYPE":"U","NORAD_CAT_ID":57476,"ELEMENT_SET_NO":999,"REV_AT_EPOCH":12399,"BSTAR":-0.00014953398,"MEAN_MOTION_DOT":-2.224e-5,"MEAN_MOTION_DDOT":0},{"OBJECT_NAME":"STARLINK-30176","OBJECT_ID":"2023-107W","EPOCH":"2025-10-20T07:38:14.015328","MEAN_MOTION":15.02545101,"ECCENTRICITY":8.515e-5,"INCLINATION":43.0031,"RA_OF_ASC_NODE":21.2091,"ARG_OF_PERICENTER":259.523,"MEAN_ANOMALY":100.5516,"EPHEMERIS_TYPE":0,"CLASSIFICATION_TYPE":"U","NORAD_CAT_ID":57477,"ELEMENT_SET_NO":999,"REV_AT_EPOCH":12400,"BSTAR":6.8463018e-5,"MEAN_MOTION_DOT":7.22e-6,"MEAN_MOTION_DDOT":0},{"OBJECT_NAME":"STARLINK-30154","OBJECT_ID":"2023-113A","EPOCH":"2025-10-20T01:46:10.883712","MEAN_MOTION":15.02532776,"ECCENTRICITY":7.599e-5,"INCLINATION":43.0034,"RA_OF_ASC_NODE":61.7562,"ARG_OF_PERICENTER":272.4659,"MEAN_ANOMALY":87.6096,"EPHEMERIS_TYPE":0,"CLASSIFICATION_TYPE":"U","NORAD_CAT_ID":57495,"ELEMENT_SET_NO":999,"REV_AT_EPOCH":12234,"BSTAR":-0.00015320779,"MEAN_MOTION_DOT":-2.272e-5,"MEAN_MOTION_DDOT":0},{"OBJECT_NAME":"STARLINK-30145","OBJECT_ID":"2023-113B","EPOCH":"2025-10-19T01:26:16.160928","MEAN_MOTION":15.02535659,"ECCENTRICITY":0.000109,"INCLINATION":43.0038,"RA_OF_ASC_NODE":67.0625,"ARG_OF_PERICENTER":266.3013,"MEAN_ANOMALY":93.7705,"EPHEMERIS_TYPE":0,"CLASSIFICATION_TYPE":"U","NORAD_CAT_ID":57496,"ELEMENT_SET_NO":999,"REV_AT_EPOCH":12224,"BSTAR":0.00016762117,"MEAN_MOTION_DOT":2.061e-5,"MEAN_MOTION_DDOT":0},{"OBJECT_NAME":"STARLINK-30226","OBJECT_ID":"2023-113C","EPOCH":"2025-10-20T01:17:24.074304","MEAN_MOTION":15.0253606,"ECCENTRICITY":0.00017411,"INCLINATION":43.0041,"RA_OF_ASC_NODE":61.6293,"ARG_OF_PERICENTER":273.215,"MEAN_ANOMALY":86.8493,"EPHEMERIS_TYPE":0,"CLASSIFICATION_TYPE":"U","NORAD_CAT_ID":57497,"ELEMENT_SET_NO":999,"REV_AT_EPOCH":12240,"BSTAR":2.2936601e-5,"MEAN_MOTION_DOT":1.06e-6,"MEAN_MOTION_DDOT":0},{"OBJECT_NAME":"STARLINK-30203","OBJECT_ID":"2023-113D","EPOCH":"2025-10-20T01:03:01.657152","MEAN_MOTION":15.02530071,"ECCENTRICITY":0.00011409,"INCLINATION":43.0042,"RA_OF_ASC_NODE":61.5495,"ARG_OF_PERICENTER":270.6621,"MEAN_ANOMALY":89.4091,"EPHEMERIS_TYPE":0,"CLASSIFICATION_TYPE":"U","NORAD_CAT_ID":57498,"ELEMENT_SET_NO":999,"REV_AT_EPOCH":12252,"BSTAR":-4.0904249e-5,"MEAN_MOTION_DOT":-7.56e-6,"MEAN_MOTION_DDOT":0},{"OBJECT_NAME":"STARLINK-30169","OBJECT_ID":"2023-113E","EPOCH":"2025-10-19T16:12:13.839552","MEAN_MOTION":15.02535143,"ECCENTRICITY":0.00012448,"INCLINATION":43.0048,"RA_OF_ASC_NODE":51.2207,"ARG_OF_PERICENTER":260.0092,"MEAN_ANOMALY":100.061,"EPHEMERIS_TYPE":0,"CLASSIFICATION_TYPE":"U","NORAD_CAT_ID":57499,"ELEMENT_SET_NO":999,"REV_AT_EPOCH":12243,"BSTAR":-1.3449589e-5,"MEAN_MOTION_DOT":-3.85e-6,"MEAN_MOTION_DDOT":0},{"OBJECT_NAME":"STARLINK-30164","OBJECT_ID":"2023-113F","EPOCH":"2025-10-19T16:49:59.351232","MEAN_MOTION":15.02546522,"ECCENTRICITY":0.0001514,"INCLINATION":43.0065,"RA_OF_ASC_NODE":63.2745,"ARG_OF_PERICENTER":261.2612,"MEAN_ANOMALY":98.8059,"EPHEMERIS_TYPE":0,"CLASSIFICATION_TYPE":"U","NORAD_CAT_ID":57500,"ELEMENT_SET_NO":999,"REV_AT_EPOCH":12245,"BSTAR":-4.5782547e-5,"MEAN_MOTION_DOT":-8.22e-6,"MEAN_MOTION_DDOT":0},{"OBJECT_NAME":"STARLINK-30072","OBJECT_ID":"2023-113G","EPOCH":"2025-10-19T18:16:07.555584","MEAN_MOTION":15.02554234,"ECCENTRICITY":0.00012126,"INCLINATION":43.0043,"RA_OF_ASC_NODE":62.8568,"ARG_OF_PERICENTER":273.4831,"MEAN_ANOMALY":86.5873,"EPHEMERIS_TYPE":0,"CLASSIFICATION_TYPE":"U","NORAD_CAT_ID":57501,"ELEMENT_SET_NO":999,"REV_AT_EPOCH":12235,"BSTAR":3.9145157e-5,"MEAN_MOTION_DOT":3.25e-6,"MEAN_MOTION_DDOT":0},{"OBJECT_NAME":"STARLINK-30228","OBJECT_ID":"2023-113H","EPOCH":"2025-10-20T08:00:03.000384","MEAN_MOTION":15.38448522,"ECCENTRICITY":0.00182264,"INCLINATION":42.9904,"RA_OF_ASC_NODE":20.8987,"ARG_OF_PERICENTER":17.0465,"MEAN_ANOMALY":70.7972,"EPHEMERIS_TYPE":0,"CLASSIFICATION_TYPE":"U","NORAD_CAT_ID":57502,"ELEMENT_SET_NO":999,"REV_AT_EPOCH":588,"BSTAR":0.0051443659,"MEAN_MOTION_DOT":0.00205732,"MEAN_MOTION_DDOT":0},{"OBJECT_NAME":"STARLINK-30230","OBJECT_ID":"2023-113J","EPOCH":"2025-10-19T15:19:04.002528","MEAN_MOTION":15.0252849,"ECCENTRICITY":0.00013501,"INCLINATION":43.0065,"RA_OF_ASC_NODE":63.6555,"ARG_OF_PERICENTER":267.2922,"MEAN_ANOMALY":92.7766,"EPHEMERIS_TYPE":0,"CLASSIFICATION_TYPE":"U","NORAD_CAT_ID":57503,"ELEMENT_SET_NO":999,"REV_AT_EPOCH":12233,"BSTAR":-6.3303389e-5,"MEAN_MOTION_DOT":-1.058e-5,"MEAN_MOTION_DDOT":0}]
