STARLINK-30190          
1 57471U 23107Q   25293.33336806  .00656741  00000+0  71018-2 0  9997
2 57471  42.9807 332.5368 0033106  66.3547 304.1839 15.60115657  5707
STARLINK-30204          
1 57472U 23107R   25292.67230460  .00000339  00000+0  40170-4 0  9996
2 57472  43.0040  24.9594 0001324 272.0703  87.9988 15.02542826123901
STARLINK-30187          
1 57473U 23107S   25292.00419408  .00001932  00000+0  15804-3 0  9990
2 57473  43.0037  28.5396 0001169 271.7101  88.3607 15.02542755123806
STARLINK-30110          
1 57474U 23107T   25293.33336806  .00178981  00000+0  46023-2 0  9993
2 57474  42.9968 337.0632 0027729  49.9465 352.9166 15.37486297  5880
STARLINK-30155          
1 57475U 23107U   25293.25729198  .00000026  00000+0  17009-4 0  9993
2 57475  43.0056  21.6112 0001751 264.8606  95.2037 15.02537892123999
STARLINK-30161          
1 57476U 23107V   25293.25395696 -.00002224  00000+0 -14953-3 0  9994
2 57476  42.9976  21.5878 0000941  96.6296 263.4654 15.02559955123991
STARLINK-30176          
1 57477U 23107W   25293.31821777  .00000722  00000+0  68463-4 0  9991
2 57477  43.0031  21.2091 0000851 259.5230 100.5516 15.02545101124007
STARLINK-30154          
1 57495U 23113A   25293.07373708 -.00002272  00000+0 -15321-3 0  9995
2 57495  43.0034  61.7562 0000759 272.4659  87.6096 15.02532776122345
STARLINK-30145          
1 57496U 23113B   25292.05990927  .00002061  00000+0  16762-3 0  9995
2 57496  43.0038  67.0625 0001090 266.3013  93.7705 15.02535659122241
STARLINK-30226          
1 57497U 23113C   25293.05375086  .00000106  00000+0  22937-4 0  9990
2 57497  43.0041  61.6293 0001741 273.2150  86.8493 15.02536060122401
STARLINK-30203          
1 57498U 23113D   25293.04376918 -.00000756  00000+0 -40904-4 0  9992
2 57498  43.0042  61.5495 0001140 270.6621  89.4091 15.02530071122525
STARLINK-30169          
1 57499U 23113E   25292.67516018 -.00000385  00000+0 -13450-4 0  9992
2 57499  43.0048  51.2207 0001244 260.0092 100.0610 15.02535143122431
STARLINK-30164          
1 57500U 23113F   25292.70138138 -.00000822  00000+0 -45783-4 0  9992
2 57500  43.0065  63.2745 0001514 261.2612  98.8059 15.02546522122450
STARLINK-30072          
1 57501U 23113G   25292.76119856  .00000325  00000+0  39145-4 0  9996
2 57501  43.0043  62.8568 0001212 273.4831  86.5873 15.02554234122354
STARLINK-30228          
1 57502U 23113H   25293.33336806  .00205732  00000+0  51444-2 0  9990
2 57502  42.9904  20.8987 0018226  17.0465  70.7972 15.38448522  5880
STARLINK-30230          
1 57503U 23113J   25292.63824077 -.00001058  00000+0 -63303-4 0  9991
2 57503  43.0065  63.6555 0001350 267.2922  92.7766 15.02528490122333
